      2.10          N: GNSS NAV DATA                        RINEX VERSION / TYPE
fic2rin                                 02/18/2022 00:17:37 PGM / RUN BY / DATE
                                                            END OF HEADER
27 22  2 17 14  0  0.0 1.228866167367e-04 1.591615728103e-11 0.000000000000e+00
    1.700000000000e+01 3.975000000000e+01 3.801944080517e-09-1.935369894096e+00
    1.963227987289e-06 1.025051565375e-02 1.221336424351e-05 5.153651763916e+03
    3.960000000000e+05 5.215406417847e-08-2.972636629745e+00-1.471489667892e-07
    9.737716744589e-01 1.516562500000e+02 6.396897042953e-01-7.464239486964e-09
   -1.889364413897e-10 1.000000000000e+00 2.197000000000e+03 0.000000000000e+00
    2.400000000000e+00 0.000000000000e+00 1.396983861923e-09 1.700000000000e+01
    3.888000000000e+05 4.000000000000e+00
32 22  2 17 14  0  0.0-6.933370605111e-05-6.821210263297e-12 0.000000000000e+00
    4.100000000000e+01-6.012500000000e+01 4.397326023422e-09-1.293097030499e+00
   -3.093853592873e-06 5.580326309428e-03 1.197680830956e-05 5.153781026840e+03
    3.960000000000e+05 1.396983861923e-07 1.623349546339e-01 5.774199962616e-08
    9.584814375591e-01 1.462187500000e+02-2.351895041252e+00-7.847469735756e-09
    7.786038605475e-11 1.000000000000e+00 2.197000000000e+03 0.000000000000e+00
    2.400000000000e+00 0.000000000000e+00 4.656612873077e-10 4.100000000000e+01
    3.888000000000e+05 4.000000000000e+00
17 22  2 17 14  0  0.0 5.762879736722e-04 5.002220859751e-12 0.000000000000e+00
    2.500000000000e+01 5.509375000000e+01 3.664438352852e-09-1.984901352480e+00
    2.892687916756e-06 1.359178300481e-02 1.340173184872e-05 5.153765052795e+03
    3.960000000000e+05 2.346932888031e-07-2.910193216474e+00 2.160668373108e-07
    9.801899759097e-01 1.309062500000e+02-1.497748906477e+00-7.412451615506e-09
   -2.832260832175e-10 1.000000000000e+00 2.197000000000e+03 0.000000000000e+00
    2.400000000000e+00 0.000000000000e+00-1.117587089539e-08 2.500000000000e+01
    3.888000000000e+05 4.000000000000e+00
16 22  2 17 14  0  0.0-4.705945029855e-04-4.888534022029e-12 0.000000000000e+00
    7.300000000000e+01-4.093750000000e+01 4.597691512306e-09-1.048375177331e+00
   -2.078711986542e-06 1.276279764716e-02 6.353482604027e-06 5.153596628189e+03
    3.960000000000e+05 2.775341272354e-07 2.354559786032e+00 1.396983861923e-07
    9.700790073645e-01 2.597500000000e+02 7.088592301465e-01-8.105694777580e-09
   -5.860958418158e-10 1.000000000000e+00 2.197000000000e+03 0.000000000000e+00
    2.400000000000e+00 0.000000000000e+00-1.024454832077e-08 7.300000000000e+01
    3.888000000000e+05 4.000000000000e+00
31 22  2 17 14  0  0.0-1.651500351727e-04-1.818989403546e-12 0.000000000000e+00
    8.300000000000e+01 5.221875000000e+01 5.029495212949e-09 1.004976312497e+00
    3.021210432053e-06 1.045793620870e-02 6.826594471931e-06 5.153685279846e+03
    3.960000000000e+05-2.980232238770e-08 1.240892077622e+00 1.601874828339e-07
    9.549383757821e-01 2.435937500000e+02 3.759096068526e-01-8.359991084328e-09
    3.450143712334e-10 1.000000000000e+00 2.197000000000e+03 0.000000000000e+00
    2.400000000000e+00 0.000000000000e+00-1.350417733192e-08 8.300000000000e+01
    3.888000000000e+05 4.000000000000e+00
24 22  2 17 14  0  0.0 2.740337513387e-04-2.046363078989e-12 0.000000000000e+00
    7.100000000000e+01 4.937500000000e+01 5.295934882660e-09 2.423830819380e+00
    2.386048436165e-06 1.234627643134e-02 7.918104529381e-06 5.153694272995e+03
    3.960000000000e+05-1.117587089539e-07 1.139971209542e+00-2.514570951462e-07
    9.342724430545e-01 2.113750000000e+02 8.077136211087e-01-8.222485356662e-09
    5.460941755858e-10 1.000000000000e+00 2.197000000000e+03 0.000000000000e+00
    2.400000000000e+00 0.000000000000e+00 2.328306436539e-09 7.100000000000e+01
    3.888000000000e+05 4.000000000000e+00
14 22  2 17 14  0  0.0-8.493429049850e-05-4.433786671143e-12 0.000000000000e+00
    1.620000000000e+02-4.409375000000e+01 5.100212444320e-09 8.664380669433e-01
   -2.337619662285e-06 1.445662113838e-03 5.520880222321e-06 5.153641450882e+03
    3.960000000000e+05 2.048909664154e-08 2.304608990958e+00-7.450580596924e-09
    9.535057020712e-01 2.661562500000e+02 3.022929769593e+00-8.396778330950e-09
   -5.982392047784e-10 1.000000000000e+00 2.197000000000e+03 0.000000000000e+00
    2.400000000000e+00 0.000000000000e+00-7.450580596924e-09 1.620000000000e+02
    3.888000000000e+05 4.000000000000e+00
21 22  2 17 14  0  0.0 1.581828109920e-04 5.684341886081e-13 0.000000000000e+00
    8.100000000000e+01 1.396562500000e+02 4.419469802942e-09-1.795833136733e+00
    7.681548595428e-06 2.460449957289e-02 5.753710865974e-06 5.153586229324e+03
    3.960000000000e+05-3.166496753693e-07-2.003508968248e+00 4.619359970093e-07
    9.593320030000e-01 2.784062500000e+02-1.003471159973e+00-8.277844805463e-09
    5.357366012941e-10 1.000000000000e+00 2.197000000000e+03 0.000000000000e+00
    2.400000000000e+00 0.000000000000e+00-1.024454832077e-08 8.100000000000e+01
    3.888000000000e+05 4.000000000000e+00
19 22  2 17 14  0  0.0 1.201285049319e-04 5.002220859751e-12 0.000000000000e+00
    9.600000000000e+01 4.575000000000e+01 3.733726953286e-09 4.283406098314e-01
    2.315267920494e-06 8.978972909972e-03 1.332722604275e-05 5.153690933228e+03
    3.960000000000e+05 1.490116119385e-08-2.865342548813e+00-1.899898052216e-07
    9.789388795908e-01 1.385000000000e+02 2.008527621363e+00-7.723178844256e-09
   -2.696540893180e-10 1.000000000000e+00 2.197000000000e+03 0.000000000000e+00
    2.400000000000e+00 0.000000000000e+00-1.583248376846e-08 9.600000000000e+01
    3.888000000000e+05 4.000000000000e+00
20 22  2 17 14  0  0.0 5.166628398001e-04-2.273736754432e-13 0.000000000000e+00
    9.900000000000e+01-5.606250000000e+01 5.218431654339e-09 3.140764874561e+00
   -2.812594175339e-06 5.146014853381e-03 1.298263669014e-06 5.153749416351e+03
    3.960000000000e+05-7.078051567078e-08-1.031514557853e+00 3.725290298462e-08
    9.416048020538e-01 3.433125000000e+02 3.134444154135e+00-8.683575991509e-09
   -1.242908915002e-10 1.000000000000e+00 2.197000000000e+03 0.000000000000e+00
    2.400000000000e+00 0.000000000000e+00-8.381903171539e-09 9.900000000000e+01
    3.888000000000e+05 4.000000000000e+00
25 22  2 17 14  0  0.0 2.868068404496e-04 5.343281372916e-12 0.000000000000e+00
    6.500000000000e+01-3.693750000000e+01 5.033423948025e-09 5.501205231393e-01
   -1.817941665649e-06 1.050796580967e-02 5.528330802917e-06 5.153702957153e+03
    3.960000000000e+05-1.136213541031e-07 2.259177615039e+00 8.009374141693e-08
    9.574968746738e-01 2.712812500000e+02 9.814785083023e-01-8.485353449031e-09
   -5.532373302697e-10 1.000000000000e+00 2.197000000000e+03 0.000000000000e+00
    2.400000000000e+00 0.000000000000e+00 5.587935447693e-09 6.500000000000e+01
    3.888000000000e+05 4.000000000000e+00
26 22  2 17 14  0  0.0 1.839948818088e-04 3.183231456205e-12 0.000000000000e+00
    3.800000000000e+01-3.987500000000e+01 5.482728377644e-09-1.023885201614e-01
   -2.129003405571e-06 6.880971719511e-03 4.811212420464e-06 5.153693655014e+03
    3.960000000000e+05 3.539025783539e-08 2.212132153326e+00 6.891787052155e-08
    9.383115262242e-01 2.715625000000e+02 3.701321293517e-01-8.675361363623e-09
   -5.082354557610e-10 1.000000000000e+00 2.197000000000e+03 0.000000000000e+00
    2.400000000000e+00 0.000000000000e+00 6.984919309616e-09 3.800000000000e+01
    3.888000000000e+05 4.000000000000e+00
23 22  2 17 14  0  0.0 5.038455128670e-07-3.524291969370e-12 0.000000000000e+00
    3.300000000000e+01-7.287500000000e+01 4.664480008601e-09 1.409746772446e+00
   -3.864988684654e-06 1.973223988898e-03 2.803280949593e-06 5.153703327179e+03
    3.960000000000e+05 2.607703208923e-08-9.046389336827e-01-1.490116119385e-08
    9.673529048742e-01 3.290625000000e+02 2.965608098350e+00-8.394635384545e-09
   -2.232235838726e-10 1.000000000000e+00 2.197000000000e+03 0.000000000000e+00
    2.400000000000e+00 0.000000000000e+00-8.381903171539e-09 8.010000000000e+02
    3.888000000000e+05 4.000000000000e+00
18 22  2 17 14  0  0.0 2.382341772318e-04-8.185452315956e-12 0.000000000000e+00
    2.390000000000e+02 9.959375000000e+01 4.365181827345e-09 2.328787438270e+00
    5.209818482399e-06 2.099205623381e-03 4.669651389122e-06 5.153621135712e+03
    3.960000000000e+05-4.842877388000e-08-1.904749128607e+00 4.656612873077e-08
    9.705081763268e-01 2.935937500000e+02 3.107382160700e+00-8.192484106990e-09
    3.939449808183e-10 1.000000000000e+00 2.197000000000e+03 0.000000000000e+00
    2.400000000000e+00 0.000000000000e+00-8.381903171539e-09 4.950000000000e+02
    3.888000000000e+05 4.000000000000e+00
28 22  2 17 14  0  0.0 3.985189832747e-04-8.071765478235e-12 0.000000000000e+00
    7.000000000000e+01-4.281250000000e+01 4.699124308818e-09-1.494369672507e+00
   -2.102926373482e-06 1.681286108214e-02 6.591901183128e-06 5.153689672470e+03
    3.960000000000e+05-3.073364496231e-07 2.358023275306e+00 2.980232238770e-07
    9.692273403463e-01 2.581875000000e+02-1.288168774017e+00-8.254986710474e-09
   -6.307405585903e-10 1.000000000000e+00 2.197000000000e+03 0.000000000000e+00
    2.400000000000e+00 6.300000000000e+01-1.117587089539e-08 7.000000000000e+01
    3.888000000000e+05 4.000000000000e+00
 2 22  2 17 16  0  0.0-6.510261446238e-04-6.821210263297e-13 0.000000000000e+00
    2.900000000000e+01 1.337500000000e+02 4.295178911442e-09-2.961729274930e+00
    6.906688213348e-06 2.066766691860e-02 5.878508090973e-06 5.153696607590e+03
    4.032000000000e+05 2.626329660416e-07-2.001924720132e+00 6.146728992462e-08
    9.650838370099e-01 2.672500000000e+02-1.441183756985e+00-7.824254483034e-09
    4.625192657839e-10 1.000000000000e+00 2.197000000000e+03 0.000000000000e+00
    2.400000000000e+00 0.000000000000e+00-1.769512891769e-08 2.900000000000e+01
    3.960000000000e+05 4.000000000000e+00
